0 DELTA 1 DEB
1 07163U 73086EB  13282.79876940  .00000003  00000-0  38772-3 0  9563
2 07163 102.0381 258.6786 0064048 199.3521 227.6882 12.31138540793897
0 DELTA 1 DEB
1 07163U 73086EB  13286.86221498 -.00000023  00000-0  17492-3 0  9588
2 07163 102.0386 262.6291 0064099 191.9027 237.3143 12.31139197794396
0 DELTA 1 DEB
1 07163U 73086EB  13288.89069293 -.00000024  00000-0  16003-3 0  9595
2 07163 102.0392 264.6010 0064131 188.1913 227.7420 12.31139320794640
0 DELTA 1 DEB
1 07163U 73086EB  13290.92254567 -.00000020  00000-0  19750-3 0  9602
2 07163 102.0398 266.5763 0064142 184.4618 233.1404 12.31139309794892
0 DELTA 1 DEB
1 07163U 73086EB  13293.45527137 -.00000006  00000-0  31423-3 0  9615
2 07163 102.0403 269.0387 0064168 179.8202 298.4565 12.31139345795202
0 DELTA 1 DEB
1 07163U 73086EB  13295.48615862  .00000003  00000-0  38971-3 0  9625
2 07163 102.0405 271.0136 0064178 176.0951 299.5735 12.31139353795457
